DMSP-F11
1 21798U 91 82  A 91332.60306256 -.00000019  00000-0  00000+0 0    28
2 21798  98.9246 322.0496 0011423 257.2383 102.4615 14.12960080    04
1 21798U 91 82  A 91332.81555799 -.00401130  00000-0 -24578+0 0    36
2 21798  98.9230 322.2614 0012237 253.0950 106.9779 14.12976271    31
1 21798U 91 82  A 91333.24036573  .00010071  00000-0  53978-2 0    46
2 21798  98.9227 322.6846 0011990 253.4815 106.5013 14.13110286    97
1 21798U 91 82  A 91334.44404605 -.00002577  00000-0 -13693-2 0    59
2 21798  98.9229 323.8844 0011914 249.3628 110.5659 14.13107772   268
1 21798U 91 82  A 91334.86889091  .00008908  00000-0  47771-2 0    68
2 21798  98.9224 324.3065 0011806 247.5430 112.4575 14.13117854   322
1 21798U 91 82  A 91335.22291314  .00008907  00000-0  47771-2 0    74
2 21798  98.9224 324.6605 0012175 245.7024 114.2758 14.13114424   372
1 21798U 91 82  A 91336.92221950  .00008907  00000-0  47771-2 0    82
2 21798  98.9204 326.3562 0011885 240.5259 119.3571 14.13120850   617
1 21798U 91 82  A 91338.62156849  .00000525  00000-0  30099-3 0   102
2 21798  98.9220 328.0471 0012149 235.7514 124.2599 14.13113948   858
1 21798U 91 82  A 91339.32950540  .00008911  00000-0  47771-2 0   112
2 21798  98.9208 328.7537 0011693 234.0722 125.4069 14.13138609   957
1 21798U 91 82  A 91340.25005575  .00008909  00000-0  47771-2 0   123
2 21798  98.9214 329.6707 0011693 231.4725 128.4104 14.13128530  1087
1 21798U 91 82  A 91340.74571697  .00000624  00000-0  35365-3 0   145
2 21798  98.9219 330.1639 0012088 230.4904 129.5202 14.13117608  1153
1 21798U 91 82  A 91341.66617995  .00000707  00000-0  39788-3 0   155
2 21798  98.9240 331.0817 0012152 228.2402 131.7810 14.13123477  1280
1 21798U 91 82  A 91342.94066655  .00000452  00000-0  26167-3 0   163
2 21798  98.9227 332.3511 0012230 223.4103 136.6078 14.13120523  1461
1 21798U 91 82  A 91343.43630085  .00000428  00000-0  24904-3 0   173
2 21798  98.9226 332.8438 0012362 221.7322 138.2919 14.13121019  1534
1 21798U 91 82  A 91345.06480940  .00000563  00000-0  32076-3 0   187
2 21798  98.9225 334.4683 0012272 217.3301 142.6991 14.13123261  1766
1 21798U 91 82  A 91348.10940670  .00001185  00000-0  65372-3 0   193
2 21798  98.9236 337.5033 0012338 208.7172 151.3541 14.13131493  2196
1 21798U 91 82  A 91351.57880557 -.00023757  00000-0 -12793-1 0   205
2 21798  98.9240 340.9606 0012466 196.9006 163.1556 14.13120141  2680
1 21798U 91 82  A 91352.64090090 -.00001568  00000-0 -82828-3 0   225
2 21798  98.9227 342.0179 0012592 193.9095 166.3316 14.13132526  2834
1 21798U 91 82  A 91357.17236472  .00000866  00000-0  48336-3 0   240
2 21798  98.9232 346.5361 0012713 182.0957 178.2790 14.13145104  3478
1 21798U 91 82  A 91358.87159832  .00000448  00000-0  25933-3 0   268
2 21798  98.9247 348.2302 0012966 176.5780 183.5450 14.13146458  3712
1 21798U 91 82  A 91360.21686600  .00000041  00000-0  31860-4 0   274
2 21798  98.9248 349.5712 0012992 172.4808 187.6487 14.13145901  3905
1 21798U 91 82  A 91361.91615365  .00000343  00000-0  20333-3 0   291
2 21798  98.9244 351.2656 0013065 167.8513 192.3080 14.13147978  4146
1 21798U 91 82  A 91364.53587860  .00001308  00000-0  71845-3 0   308
2 21798  98.9253 353.8775 0013192 160.9544 199.2462 14.13155799  4516
1 21798U 91 82  A 92  1.87236862  .00000565  00000-0  32189-3 0   321
2 21798  98.9249 356.2072 0013314 154.0514 206.1138 14.13158161  4845
1 21798U 91 82  A 92  2.58040181  .00000538  00000-0  30725-3 0   332
2 21798  98.9244 356.9130 0013409 152.1425 208.0484 14.13159144  4945
1 21798U 91 82  A 92  6.40383892  .00001050  00000-0  58100-3 0   344
2 21798  98.9241   0.7244 0013515 141.4001 219.2819 14.13167800  5485
1 21798U 91 82  A 92  8.45701234  .00001317  00000-0  72327-3 0   359
2 21798  98.9246   2.7714 0013608 136.1615 224.0649 14.13174430  5773
1 21798U 91 82  A 92 10.01465751  .00013990  00000-0  74737-2 0   362
2 21798  98.9263   4.3240 0013877 132.1536 228.0832 14.13188497  5990
1 21798U 91 82  A 92 11.99705809  .00000555  00000-0  31610-3 0   379
2 21798  98.9263   6.3017 0013790 126.9606 233.0056 14.13178891  6270
1 21798U 91 82  A 92 13.27154496  .00001572  00000-0  85947-3 0   396
2 21798  98.9262   7.5732 0013884 122.9509 237.3082 14.13184608  6457
1 21798U 91 82  A 92 13.69635395  .00000917  00000-0  50973-3 0   409
2 21798  98.9277   7.9940 0013758 122.0074 238.2420 14.13183592  6510
1 21798U 91 82  A 92 14.82917983  .00000829  00000-0  46252-3 0   419
2 21798  98.9267   9.1255 0013872 119.1548 241.1107 14.13186404  6679
1 21798U 91 82  A 92 20.28087032  .00000206  00000-0  13025-3 0   432
2 21798  98.9256  14.5621 0014017 104.8327 255.4171 14.13192701  7444
1 21798U 91 82  A 92 31.82137796  .00000572  00000-0  32488-3 0   527
2 21798  98.9280  26.0719 0013879  74.3337 285.9316 14.13213965  9081
1 21798U 91082 A  92032.03378732  .00001934  00000-0  10328-2 0 0053
2 21798 098.9282 026.2835 0013269 073.0628 287.2579 14.1321726600911
1 21798U 91082 A  92033.09578465  .00002379  00000-0  12706-2 0 0054
2 21798 098.9268 027.3427 0013229 070.4138 289.9070 14.1322139500925
1 21798U 91082 A  92034.22857630  .00003736  00000-0  19947-2 0 0054
2 21798 098.9284 028.4746 0013288 066.6659 293.6466 14.1322839100941
1 21798U 91082 A  92035.07816943  .00001653  00000-0  88274-3 0 0055
2 21798 098.9283 029.3215 0013295 064.0346 296.2799 14.1322938900953
1 21798U 91082 A  92035.99855763  .00001851  00000-0  98848-3 0 0056
2 21798 098.9280 030.2386 0013281 061.4749 298.8315 14.1323253500966
1 21798U 91082 A  92037.06054363  .00001976  00000-0  10551-2 0 0057
2 21798 098.9279 031.2974 0013235 058.2370 302.0687 14.1323590100981
1 21798U 91082 A  92038.05172717  .00001646  00000-0  87865-3 0 0057
2 21798 098.9288 032.2855 0013179 056.0441 304.2574 14.1323889000995
1 21798U 91082 A  92039.04290909  .00000978  00000-0  52209-3 0 0057
2 21798 098.9297 033.2746 0013202 053.0814 307.2153 14.1324050201009
1 21798U 91082 A  92040.03408756  .00002022  00000-0  10791-2 0 0058
2 21798 098.9294 034.2631 0013302 050.0992 310.1930 14.1324609201023
1 21798U 91082 A  92041.02526320  .00002015  00000-0  10753-2 0 0058
2 21798 098.9291 035.2532 0013305 047.3517 312.9350 14.1325012101037
1 21798U 91082 A  92042.08723421  .00001521  00000-0  81187-3 0 0059
2 21798 098.9284 036.3127 0013381 044.2503 316.0343 14.1325442301052
1 21798U 91082 A  92043.00760684  .00000599  00000-0  32005-3 0 0059
2 21798 098.9295 037.2315 0013369 041.7154 318.5598 14.1325477801065
1 21798U 91082 A  92044.06957543  .00000732  00000-0  39095-3 0 0060
2 21798 098.9296 038.2909 0013305 039.1419 321.1314 14.1325672701080
1 21798U 91082 A  92045.06074324  .00001233  00000-0  65796-3 0 0061
2 21798 098.9297 039.2797 0013270 036.3168 323.9500 14.1325995301094
1 21798U 91082 A  92046.05190911  .00001502  00000-0  80161-3 0 0061
2 21798 098.9289 040.2685 0013349 033.3257 326.9346 14.1326337001108
1 21798U 91082 A  92047.04307354  .00001826  00000-0  97437-3 0 0062
2 21798 098.9286 041.2558 0013277 030.6191 329.6341 14.1326595801122
1 21798U 91082 A  92048.03423586  .00001601  00000-0  85442-3 0 0062
2 21798 098.9292 042.2440 0013149 028.3132 331.9335 14.1326846901136
1 21798U 91082 A  92049.02539676  .00000841  00000-0  44890-3 0 0062
2 21798 098.9282 043.2338 0013013 025.9389 334.3008 14.1326954201150
1 21798U 91082 A  92050.01655677  .00000734  00000-0  39197-3 0 0062
2 21798 098.9279 044.2236 0013039 023.0392 337.1932 14.1327080701164
1 21798U 91082 A  92051.14931020  .00000793  00000-0  42339-3 0 0062
2 21798 098.9295 045.3554 0013138 019.8876 340.3409 14.1327289301180
1 21798U 91082 A  92053.06082353  .00002404  00000-0  12824-2 0 0064
2 21798 098.9303 047.2619 0013043 014.7594 345.4554 14.1328139701207
1 21798U 91082 A  92054.05197427  .00003564  00000-0  19011-2 0 0065
2 21798 098.9313 048.2509 0013002 011.9159 348.2911 14.1328716901221
1 21798U 91082 A  92055.04312272  .00002136  00000-0  11394-2 0 0065
2 21798 098.9301 049.2392 0012964 009.1161 351.0832 14.1328916601235
1 21798U 91082 A  92056.03426893  .00001811  00000-0  96583-3 0 0065
2 21798 098.9300 050.2277 0012992 006.2437 353.9477 14.1329176301249
1 21798U 91082 A  92057.09620832  .00002945  00000-0  15706-2 0 0065
2 21798 098.9306 051.2883 0012917 003.2527 356.9336 14.1329758801264
1 21798U 91082 A  92058.01655180  .00001430  00000-0  76296-3 0 0067
2 21798 098.9313 052.2076 0012889 000.5715 359.6039 14.1329978701277
1 21798U 91082 A  92059.07848408  .00002636  00000-0  14053-2 0 0067
2 21798 098.9310 053.2676 0012955 357.5690 002.6022 14.1330664901292
1 21798U 91082 A  92060.14041218  .00002110  00000-0  11253-2 0 0068
2 21798 098.9315 054.3274 0012878 354.7962 005.3680 14.1331099301307
1 21798U 91082 A  92061.06074772  .00001953  00000-0  10415-2 0 0068
2 21798 098.9314 055.2456 0012754 352.1097 008.0471 14.1331364501320
1 21798U 91082 A  92062.05187481  .00003494  00000-0  18623-2 0 0068
2 21798 098.9306 056.2344 0012862 349.2915 010.8574 14.1332065101334
1 21798U 91082 A  92063.11379345  .00001749  00000-0  93229-3 0 0069
2 21798 098.9300 057.2933 0012820 346.2784 013.8649 14.1332375401349
1 21798U 91082 A  92064.03412071  .00002434  00000-0  12975-2 0 0070
2 21798 098.9288 058.2116 0013068 343.7755 016.3580 14.1332729301362
1 21798U 91082 A  92065.09603596  .00000603  00000-0  32156-3 0 0070
2 21798 098.9283 059.2719 0013085 340.7253 019.4032 14.1332745601377
1 21798U 91082 A  92066.01636019  .00000819  00000-0  43650-3 0 0070
2 21798 098.9282 060.1912 0013169 338.4717 021.6470 14.1332932001390
1 21798U 91082 A  92067.07827280  .00000846  00000-0  45089-3 0 0071
2 21798 098.9292 061.2513 0013351 335.8682 024.2469 14.1333149901405
1 21798U 91082 A  92067.99859475  .00000532  00000-0  28394-3 0 0072
2 21798 098.9302 062.1703 0013272 333.1090 026.9949 14.1333206201418
1 21798U 91082 A  92069.06050512  .00000788  00000-0  42029-3 0 0072
2 21798 098.9308 063.2303 0013100 329.8894 030.2121 14.1333412801433
